[{"OBJECT_NAME":"KUIPER-00109","OBJECT_ID":"2025-171R","EPOCH":"2026-03-09T13:04:50.411424","MEAN_MOTION":14.79928768,"ECCENTRICITY":5.788e-5,"INCLINATION":51.8999,"RA_OF_ASC_NODE":156.1908,"ARG_OF_PERICENTER":108.8574,"MEAN_ANOMALY":251.2451,"EPHEMERIS_TYPE":0,"CLASSIFICATION_TYPE":"U","NORAD_CAT_ID":65147,"ELEMENT_SET_NO":999,"REV_AT_EPOCH":3290,"BSTAR":0.00013041693,"MEAN_MOTION_DOT":7.73e-6,"MEAN_MOTION_DDOT":0},{"OBJECT_NAME":"FENGYUN 1C DEB","OBJECT_ID":"1999-025NM","EPOCH":"2026-03-09T00:56:59.268768","MEAN_MOTION":14.46584905,"ECCENTRICITY":0.01880259,"INCLINATION":98.2435,"RA_OF_ASC_NODE":97.8884,"ARG_OF_PERICENTER":305.005,"MEAN_ANOMALY":129.4557,"EPHEMERIS_TYPE":0,"CLASSIFICATION_TYPE":"U","NORAD_CAT_ID":30036,"ELEMENT_SET_NO":999,"REV_AT_EPOCH":421,"BSTAR":0.00060523095,"MEAN_MOTION_DOT":2.667e-5,"MEAN_MOTION_DDOT":0}]
